{
  "type": "FeatureCollection",
  "features": [
    {
      "type": "Feature",
      "properties": {
        "norad_id": 66900,
        "name": "STARLINK-36074",
        "group": "last-30-days",
        "lat": -51.138552674490576,
        "lon": -5.872585683419464,
        "alt_km": 308.73936035732913,
        "timestamp": "2025-12-14T22:38:39.519310+00:00",
        "meta_object_name": "STARLINK-36074",
        "meta_object_id": "2025-283Y",
        "meta_epoch": "2025-12-14T06:00:02.999808",
        "meta_mean_motion": 15.91685265,
        "meta_eccentricity": 8.63e-05,
        "meta_inclination": 53.1544,
        "meta_ra_of_asc_node": 66.1881,
        "meta_arg_of_pericenter": 83.1736,
        "meta_mean_anomaly": 186.7494,
        "meta_ephemeris_type": 0,
        "meta_classification_type": "U",
        "meta_norad_cat_id": 66900,
        "meta_element_set_no": 999,
        "meta_rev_at_epoch": 267,
        "meta_bstar": -0.0047162142,
        "meta_mean_motion_dot": -0.01569956,
        "meta_mean_motion_ddot": 0.00069347086,
        "tle_line1": "1 66900U 25283Y   25348.25003472 -.01569956  69347-3 -47162-2 0  9993",
        "tle_line2": "2 66900  53.1544  66.1881 0000863  83.1736 186.7494 15.91685265  2672"
      },
      "geometry": {
        "type": "Point",
        "coordinates": [
          -5.872585683419464,
          -51.138552674490576
        ]
      }
    },
    {
      "type": "Feature",
      "properties": {
        "norad_id": 66901,
        "name": "STARLINK-36043",
        "group": "last-30-days",
        "lat": -50.381852472524066,
        "lon": -2.285157117723462,
        "alt_km": 308.7229637442906,
        "timestamp": "2025-12-14T22:38:39.519320+00:00",
        "meta_object_name": "STARLINK-36043",
        "meta_object_id": "2025-283Z",
        "meta_epoch": "2025-12-14T06:00:02.999808",
        "meta_mean_motion": 15.91722082,
        "meta_eccentricity": 9.628e-05,
        "meta_inclination": 53.1546,
        "meta_ra_of_asc_node": 66.1832,
        "meta_arg_of_pericenter": 84.4944,
        "meta_mean_anomaly": 187.7568,
        "meta_ephemeris_type": 0,
        "meta_classification_type": "U",
        "meta_norad_cat_id": 66901,
        "meta_element_set_no": 999,
        "meta_rev_at_epoch": 267,
        "meta_bstar": -0.0047447185,
        "meta_mean_motion_dot": -0.01582305,
        "meta_mean_motion_ddot": 0.00070375351,
        "tle_line1": "1 66901U 25283Z   25348.25003472 -.01582305  70375-3 -47447-2 0  9996",
        "tle_line2": "2 66901  53.1546  66.1832 0000962  84.4944 187.7568 15.91722082  2678"
      },
      "geometry": {
        "type": "Point",
        "coordinates": [
          -2.285157117723462,
          -50.381852472524066
        ]
      }
    },
    {
      "type": "Feature",
      "properties": {
        "norad_id": 66902,
        "name": "STARLINK-35983",
        "group": "last-30-days",
        "lat": -49.31923532139291,
        "lon": 1.9088196668117638,
        "alt_km": 308.49291899601394,
        "timestamp": "2025-12-14T22:38:39.519330+00:00",
        "meta_object_name": "STARLINK-35983",
        "meta_object_id": "2025-283AA",
        "meta_epoch": "2025-12-14T06:00:02.999808",
        "meta_mean_motion": 15.91755568,
        "meta_eccentricity": 7.795e-05,
        "meta_inclination": 53.1544,
        "meta_ra_of_asc_node": 66.1776,
        "meta_arg_of_pericenter": 87.4787,
        "meta_mean_anomaly": 187.6088,
        "meta_ephemeris_type": 0,
        "meta_classification_type": "U",
        "meta_norad_cat_id": 66902,
        "meta_element_set_no": 999,
        "meta_rev_at_epoch": 267,
        "meta_bstar": -0.0047495086,
        "meta_mean_motion_dot": -0.01586569,
        "meta_mean_motion_ddot": 0.00070746382,
        "tle_line1": "1 66902U 25283AA  25348.25003472 -.01586569  70746-3 -47495-2 0  9998",
        "tle_line2": "2 66902  53.1544  66.1776 0000779  87.4787 187.6088 15.91755568  2679"
      },
      "geometry": {
        "type": "Point",
        "coordinates": [
          1.9088196668117638,
          -49.31923532139291
        ]
      }
    },
    {
      "type": "Feature",
      "properties": {
        "norad_id": 66903,
        "name": "STARLINK-36077",
        "group": "last-30-days",
        "lat": -48.356856920351376,
        "lon": 5.151284684208998,
        "alt_km": 308.36713417654664,
        "timestamp": "2025-12-14T22:38:39.519340+00:00",
        "meta_object_name": "STARLINK-36077",
        "meta_object_id": "2025-283AB",
        "meta_epoch": "2025-12-14T06:00:02.999808",
        "meta_mean_motion": 15.91790268,
        "meta_eccentricity": 7.864e-05,
        "meta_inclination": 53.1547,
        "meta_ra_of_asc_node": 66.1728,
        "meta_arg_of_pericenter": 84.5249,
        "meta_mean_anomaly": 192.8312,
        "meta_ephemeris_type": 0,
        "meta_classification_type": "U",
        "meta_norad_cat_id": 66903,
        "meta_element_set_no": 999,
        "meta_rev_at_epoch": 267,
        "meta_bstar": -0.0047526603,
        "meta_mean_motion_dot": -0.01590423,
        "meta_mean_motion_ddot": 0.00071085863,
        "tle_line1": "1 66903U 25283AB  25348.25003472 -.01590423  71086-3 -47527-2 0  9997",
        "tle_line2": "2 66903  53.1547  66.1728 0000786  84.5249 192.8312 15.91790268  2673"
      },
      "geometry": {
        "type": "Point",
        "coordinates": [
          5.151284684208998,
          -48.356856920351376
        ]
      }
    },
    {
      "type": "Feature",
      "properties": {
        "norad_id": 66904,
        "name": "STARLINK-36059",
        "group": "last-30-days",
        "lat": -47.244872570985805,
        "lon": 8.437561631319202,
        "alt_km": 308.23146930565053,
        "timestamp": "2025-12-14T22:38:39.519350+00:00",
        "meta_object_name": "STARLINK-36059",
        "meta_object_id": "2025-283AC",
        "meta_epoch": "2025-12-14T06:00:02.999808",
        "meta_mean_motion": 15.9182818,
        "meta_eccentricity": 7.368e-05,
        "meta_inclination": 53.1543,
        "meta_ra_of_asc_node": 66.1675,
        "meta_arg_of_pericenter": 88.1925,
        "meta_mean_anomaly": 191.5623,
        "meta_ephemeris_type": 0,
        "meta_classification_type": "U",
        "meta_norad_cat_id": 66904,
        "meta_element_set_no": 999,
        "meta_rev_at_epoch": 267,
        "meta_bstar": -0.0047708939,
        "meta_mean_motion_dot": -0.01599537,
        "meta_mean_motion_ddot": 0.0007186116,
        "tle_line1": "1 66904U 25283AC  25348.25003472 -.01599537  71861-3 -47709-2 0  9996",
        "tle_line2": "2 66904  53.1543  66.1675 0000736  88.1925 191.5623 15.91828180  2673"
      },
      "geometry": {
        "type": "Point",
        "coordinates": [
          8.437561631319202,
          -47.244872570985805
        ]
      }
    },
    {
      "type": "Feature",
      "properties": {
        "norad_id": 66905,
        "name": "STARLINK-36075",
        "group": "last-30-days",
        "lat": -46.20373072960771,
        "lon": 11.184133798177678,
        "alt_km": 308.16929446432914,
        "timestamp": "2025-12-14T22:38:39.519360+00:00",
        "meta_object_name": "STARLINK-36075",
        "meta_object_id": "2025-283AD",
        "meta_epoch": "2025-12-14T06:00:02.999808",
        "meta_mean_motion": 15.91865911,
        "meta_eccentricity": 8.279e-05,
        "meta_inclination": 53.1545,
        "meta_ra_of_asc_node": 66.1634,
        "meta_arg_of_pericenter": 87.6378,
        "meta_mean_anomaly": 194.1947,
        "meta_ephemeris_type": 0,
        "meta_classification_type": "U",
        "meta_norad_cat_id": 66905,
        "meta_element_set_no": 999,
        "meta_rev_at_epoch": 267,
        "meta_bstar": -0.0047864336,
        "meta_mean_motion_dot": -0.01607786,
        "meta_mean_motion_ddot": 0.00072569218,
        "tle_line1": "1 66905U 25283AD  25348.25003472 -.01607786  72569-3 -47864-2 0  9991",
        "tle_line2": "2 66905  53.1545  66.1634 0000827  87.6378 194.1947 15.91865911  2679"
      },
      "geometry": {
        "type": "Point",
        "coordinates": [
          11.184133798177678,
          -46.20373072960771
        ]
      }
    },
    {
      "type": "Feature",
      "properties": {
        "norad_id": 66906,
        "name": "1998-067XS",
        "group": "last-30-days",
        "lat": 37.67952201162133,
        "lon": -86.24101214224069,
        "alt_km": 409.36839058622445,
        "timestamp": "2025-12-14T22:38:39.519372+00:00",
        "meta_object_name": "1998-067XS",
        "meta_object_id": "1998-067XS",
        "meta_epoch": "2025-12-14T03:31:53.110272",
        "meta_mean_motion": 15.5066238,
        "meta_eccentricity": 0.00034792,
        "meta_inclination": 51.6304,
        "meta_ra_of_asc_node": 135.4381,
        "meta_arg_of_pericenter": 209.6903,
        "meta_mean_anomaly": 150.3889,
        "meta_ephemeris_type": 0,
        "meta_classification_type": "U",
        "meta_norad_cat_id": 66906,
        "meta_element_set_no": 999,
        "meta_rev_at_epoch": 183,
        "meta_bstar": 0.00050586866,
        "meta_mean_motion_dot": 0.0002921,
        "meta_mean_motion_ddot": 0,
        "tle_line1": "1 66906U 98067XS  25348.14714248  .00029210  00000+0  50587-3 0  9991",
        "tle_line2": "2 66906  51.6304 135.4381 0003479 209.6903 150.3889 15.50662380  1837"
      },
      "geometry": {
        "type": "Point",
        "coordinates": [
          -86.24101214224069,
          37.67952201162133
        ]
      }
    }
  ]
}